[{"OBJECT_NAME":"STARLINK-35831","OBJECT_ID":"2025-254AC","EPOCH":"2026-03-09T18:09:17.534016","MEAN_MOTION":15.30197857,"ECCENTRICITY":8.5e-5,"INCLINATION":53.1586,"RA_OF_ASC_NODE":229.4159,"ARG_OF_PERICENTER":101.3463,"MEAN_ANOMALY":258.7633,"EPHEMERIS_TYPE":0,"CLASSIFICATION_TYPE":"U","NORAD_CAT_ID":66374,"ELEMENT_SET_NO":999,"REV_AT_EPOCH":1902,"BSTAR":0.00067359825,"MEAN_MOTION_DOT":0.00019642,"MEAN_MOTION_DDOT":0},{"OBJECT_NAME":"CZ-6A R\/B","OBJECT_ID":"2023-168B","EPOCH":"2026-03-09T21:13:08.722272","MEAN_MOTION":15.16100791,"ECCENTRICITY":0.00607667,"INCLINATION":97.7542,"RA_OF_ASC_NODE":104.7688,"ARG_OF_PERICENTER":339.2379,"MEAN_ANOMALY":20.6386,"EPHEMERIS_TYPE":0,"CLASSIFICATION_TYPE":"U","NORAD_CAT_ID":58200,"ELEMENT_SET_NO":999,"REV_AT_EPOCH":12979,"BSTAR":0.00029693841,"MEAN_MOTION_DOT":5.919e-5,"MEAN_MOTION_DDOT":0}]
